{
  "norad_id": 66076,
  "name": "STARLINK-34801",
  "history": [
    {
      "epoch": "2026-05-04T18:15:39.155040Z",
      "apogee_km": 475.80862772633736,
      "perigee_km": 474.6312210067317,
      "latitude_deg": 8.796355588927873e-06,
      "longitude_deg": -151.55251231354214,
      "height_km": 475.91285327706794,
      "semi_major_axis_km": 6853.356924366534,
      "eccentricity": 8.59e-05,
      "inclination_deg": 53.1598,
      "raan_deg": 345.0062,
      "arg_perigee_deg": 69.5435,
      "mean_anomaly_deg": 290.5658,
      "mean_motion_rev_day": 15.30198374
    },
    {
      "epoch": "2026-05-05T19:20:29.870592Z",
      "apogee_km": 475.6668596859108,
      "perigee_km": 474.70054146712846,
      "latitude_deg": 1.342531612999987e-06,
      "longitude_deg": -173.64696660832502,
      "height_km": 476.34154405223853,
      "semi_major_axis_km": 6853.320700576519,
      "eccentricity": 7.05e-05,
      "inclination_deg": 53.1592,
      "raan_deg": 340.1531,
      "arg_perigee_deg": 122.4101,
      "mean_anomaly_deg": 237.6968,
      "mean_motion_rev_day": 15.30210506
    },
    {
      "epoch": "2026-05-06T20:25:21.489024Z",
      "apogee_km": 476.0512396311633,
      "perigee_km": 474.3694281954213,
      "latitude_deg": -4.670840070328561e-05,
      "longitude_deg": 164.2492765185138,
      "height_km": 476.32657514298086,
      "semi_major_axis_km": 6853.3473339132925,
      "eccentricity": 0.0001227,
      "inclination_deg": 53.1604,
      "raan_deg": 335.2945,
      "arg_perigee_deg": 105.0255,
      "mean_anomaly_deg": 255.0881,
      "mean_motion_rev_day": 15.30201586
    },
    {
      "epoch": "2026-05-07T19:56:09.232224Z",
      "apogee_km": 476.0863500453188,
      "perigee_km": 474.30174264085144,
      "latitude_deg": 2.3069043459980246e-05,
      "longitude_deg": 166.03493970705838,
      "height_km": 476.5810232796878,
      "semi_major_axis_km": 6853.331046343084,
      "eccentricity": 0.0001302,
      "inclination_deg": 53.1611,
      "raan_deg": 330.7447,
      "arg_perigee_deg": 123.1966,
      "mean_anomaly_deg": 236.916,
      "mean_motion_rev_day": 15.30207041
    },
    {
      "epoch": "2026-05-08T19:26:56.969376Z",
      "apogee_km": 475.7858330922827,
      "perigee_km": 474.5673139389128,
      "latitude_deg": -1.9437200993382427e-05,
      "longitude_deg": 167.8210450819904,
      "height_km": 476.1761941605615,
      "semi_major_axis_km": 6853.313573515597,
      "eccentricity": 8.89e-05,
      "inclination_deg": 53.1617,
      "raan_deg": 326.1954,
      "arg_perigee_deg": 99.5259,
      "mean_anomaly_deg": 260.5842,
      "mean_motion_rev_day": 15.30212893
    },
    {
      "epoch": "2026-05-09T18:57:45.198144Z",
      "apogee_km": 476.3384403228483,
      "perigee_km": 474.12069090221576,
      "latitude_deg": -7.05238494996511e-05,
      "longitude_deg": 169.60359083514427,
      "height_km": 476.3018334941066,
      "semi_major_axis_km": 6853.366565612531,
      "eccentricity": 0.0001618,
      "inclination_deg": 53.161,
      "raan_deg": 321.6446,
      "arg_perigee_deg": 99.056,
      "mean_anomaly_deg": 261.0623,
      "mean_motion_rev_day": 15.30195145
    },
    {
      "epoch": "2026-05-10T18:28:33.165120Z",
      "apogee_km": 476.1501189437986,
      "perigee_km": 474.2681900897678,
      "latitude_deg": 7.0601324502323735e-06,
      "longitude_deg": 171.38682713398538,
      "height_km": 476.2967136170625,
      "semi_major_axis_km": 6853.346154516783,
      "eccentricity": 0.0001373,
      "inclination_deg": 53.162,
      "raan_deg": 317.0933,
      "arg_perigee_deg": 101.6105,
      "mean_anomaly_deg": 258.505,
      "mean_motion_rev_day": 15.30201981
    }
  ]
}